{
  "type": "FeatureCollection",
  "features": [
    {
      "type": "Feature",
      "properties": {
        "norad_id": 67125,
        "name": "STARLINK-36219",
        "group": "last-30-days",
        "lat": -42.851102125420425,
        "lon": 171.77847584834188,
        "alt_km": 281.3151891281577,
        "timestamp": "2025-12-20T20:38:43.176126+00:00",
        "meta_object_name": "STARLINK-36219",
        "meta_object_id": "2025-299Z",
        "meta_epoch": "2025-12-19T20:00:01.999008",
        "meta_mean_motion": 16.0080838,
        "meta_eccentricity": 0.0001733,
        "meta_inclination": 43.0001,
        "meta_ra_of_asc_node": 273.65,
        "meta_arg_of_pericenter": 266.3563,
        "meta_mean_anomaly": 199.697,
        "meta_ephemeris_type": 0,
        "meta_classification_type": "U",
        "meta_norad_cat_id": 67125,
        "meta_element_set_no": 999,
        "meta_rev_at_epoch": 195,
        "meta_bstar": -0.0025543,
        "meta_mean_motion_dot": -0.01421534,
        "meta_mean_motion_ddot": 0.00062933,
        "tle_line1": "1 67125U 25299Z   25353.83335647 -.01421534  62933-3 -25543-2 0  9994",
        "tle_line2": "2 67125  43.0001 273.6500 0001733 266.3563 199.6970 16.00808380  1959"
      },
      "geometry": {
        "type": "Point",
        "coordinates": [
          171.77847584834188,
          -42.851102125420425
        ]
      }
    },
    {
      "type": "Feature",
      "properties": {
        "norad_id": 67126,
        "name": "STARLINK-36223",
        "group": "last-30-days",
        "lat": -42.9257590568405,
        "lon": 173.6978289404519,
        "alt_km": 280.95809001030193,
        "timestamp": "2025-12-20T20:38:43.176138+00:00",
        "meta_object_name": "STARLINK-36223",
        "meta_object_id": "2025-299AA",
        "meta_epoch": "2025-12-19T20:00:01.999008",
        "meta_mean_motion": 16.00919732,
        "meta_eccentricity": 0.0001743,
        "meta_inclination": 43.0001,
        "meta_ra_of_asc_node": 273.6476,
        "meta_arg_of_pericenter": 260.6071,
        "meta_mean_anomaly": 206.4069,
        "meta_ephemeris_type": 0,
        "meta_classification_type": "U",
        "meta_norad_cat_id": 67126,
        "meta_element_set_no": 999,
        "meta_rev_at_epoch": 195,
        "meta_bstar": -0.0025199,
        "meta_mean_motion_dot": -0.01411572,
        "meta_mean_motion_ddot": 0.00062201,
        "tle_line1": "1 67126U 25299AA  25353.83335647 -.01411572  62201-3 -25199-2 0  9991",
        "tle_line2": "2 67126  43.0001 273.6476 0001743 260.6071 206.4069 16.00919732  1954"
      },
      "geometry": {
        "type": "Point",
        "coordinates": [
          173.6978289404519,
          -42.9257590568405
        ]
      }
    },
    {
      "type": "Feature",
      "properties": {
        "norad_id": 67127,
        "name": "STARLINK-36164",
        "group": "last-30-days",
        "lat": -42.96362458314029,
        "lon": 175.3173815802609,
        "alt_km": 280.77718493733664,
        "timestamp": "2025-12-20T20:38:43.176150+00:00",
        "meta_object_name": "STARLINK-36164",
        "meta_object_id": "2025-299AB",
        "meta_epoch": "2025-12-19T20:00:01.999008",
        "meta_mean_motion": 16.01035564,
        "meta_eccentricity": 0.0001724,
        "meta_inclination": 43.0001,
        "meta_ra_of_asc_node": 273.6455,
        "meta_arg_of_pericenter": 270.3556,
        "meta_mean_anomaly": 197.5191,
        "meta_ephemeris_type": 0,
        "meta_classification_type": "U",
        "meta_norad_cat_id": 67127,
        "meta_element_set_no": 999,
        "meta_rev_at_epoch": 195,
        "meta_bstar": -0.0025515,
        "meta_mean_motion_dot": -0.01438589,
        "meta_mean_motion_ddot": 0.00064487,
        "tle_line1": "1 67127U 25299AB  25353.83335647 -.01438589  64487-3 -25515-2 0  9999",
        "tle_line2": "2 67127  43.0001 273.6455 0001724 270.3556 197.5191 16.01035564  1956"
      },
      "geometry": {
        "type": "Point",
        "coordinates": [
          175.3173815802609,
          -42.96362458314029
        ]
      }
    },
    {
      "type": "Feature",
      "properties": {
        "norad_id": 67128,
        "name": "STARLINK-35685",
        "group": "last-30-days",
        "lat": -42.91715372914808,
        "lon": -179.06894718324162,
        "alt_km": 280.3844700474556,
        "timestamp": "2025-12-20T20:38:43.176160+00:00",
        "meta_object_name": "STARLINK-35685",
        "meta_object_id": "2025-299AC",
        "meta_epoch": "2025-12-19T20:00:01.999008",
        "meta_mean_motion": 16.00926922,
        "meta_eccentricity": 0.000181,
        "meta_inclination": 42.9999,
        "meta_ra_of_asc_node": 273.6351,
        "meta_arg_of_pericenter": 261.83,
        "meta_mean_anomaly": 210.0776,
        "meta_ephemeris_type": 0,
        "meta_classification_type": "U",
        "meta_norad_cat_id": 67128,
        "meta_element_set_no": 999,
        "meta_rev_at_epoch": 195,
        "meta_bstar": -0.0023167,
        "meta_mean_motion_dot": -0.0129967,
        "meta_mean_motion_ddot": 0.00053464,
        "tle_line1": "1 67128U 25299AC  25353.83335647 -.01299670  53464-3 -23167-2 0  9990",
        "tle_line2": "2 67128  42.9999 273.6351 0001810 261.8300 210.0776 16.00926922  1950"
      },
      "geometry": {
        "type": "Point",
        "coordinates": [
          -179.06894718324162,
          -42.91715372914808
        ]
      }
    },
    {
      "type": "Feature",
      "properties": {
        "norad_id": 67129,
        "name": "STARLINK-36214",
        "group": "last-30-days",
        "lat": -42.97857586697571,
        "lon": 177.35786611651415,
        "alt_km": 280.3703278467856,
        "timestamp": "2025-12-20T20:38:43.176172+00:00",
        "meta_object_name": "STARLINK-36214",
        "meta_object_id": "2025-299AD",
        "meta_epoch": "2025-12-19T20:00:01.999008",
        "meta_mean_motion": 16.01158914,
        "meta_eccentricity": 0.0001742,
        "meta_inclination": 43,
        "meta_ra_of_asc_node": 273.6428,
        "meta_arg_of_pericenter": 266.7405,
        "meta_mean_anomaly": 202.1415,
        "meta_ephemeris_type": 0,
        "meta_classification_type": "U",
        "meta_norad_cat_id": 67129,
        "meta_element_set_no": 999,
        "meta_rev_at_epoch": 195,
        "meta_bstar": -0.0025178,
        "meta_mean_motion_dot": -0.01429951,
        "meta_mean_motion_ddot": 0.00063863,
        "tle_line1": "1 67129U 25299AD  25353.83335647 -.01429951  63863-3 -25178-2 0  9996",
        "tle_line2": "2 67129  43.0000 273.6428 0001742 266.7405 202.1415 16.01158914  1956"
      },
      "geometry": {
        "type": "Point",
        "coordinates": [
          177.35786611651415,
          -42.97857586697571
        ]
      }
    },
    {
      "type": "Feature",
      "properties": {
        "norad_id": 67130,
        "name": "STARLINK-36194",
        "group": "last-30-days",
        "lat": -42.497840852799655,
        "lon": -172.3525398150869,
        "alt_km": 279.8927614291506,
        "timestamp": "2025-12-20T20:38:43.176182+00:00",
        "meta_object_name": "STARLINK-36194",
        "meta_object_id": "2025-299AE",
        "meta_epoch": "2025-12-19T20:00:01.999008",
        "meta_mean_motion": 16.01154683,
        "meta_eccentricity": 0.0001807,
        "meta_inclination": 42.9999,
        "meta_ra_of_asc_node": 273.626,
        "meta_arg_of_pericenter": 263.9129,
        "meta_mean_anomaly": 212.2276,
        "meta_ephemeris_type": 0,
        "meta_classification_type": "U",
        "meta_norad_cat_id": 67130,
        "meta_element_set_no": 999,
        "meta_rev_at_epoch": 195,
        "meta_bstar": -0.0023426,
        "meta_mean_motion_dot": -0.01331344,
        "meta_mean_motion_ddot": 0.00056014,
        "tle_line1": "1 67130U 25299AE  25353.83335647 -.01331344  56014-3 -23426-2 0  9990",
        "tle_line2": "2 67130  42.9999 273.6260 0001807 263.9129 212.2276 16.01154683  1957"
      },
      "geometry": {
        "type": "Point",
        "coordinates": [
          -172.3525398150869,
          -42.497840852799655
        ]
      }
    },
    {
      "type": "Feature",
      "properties": {
        "norad_id": 67131,
        "name": "ZIYUAN 3-04 (ZY 3-04)",
        "group": "last-30-days",
        "lat": 80.86837431496873,
        "lon": 13.969954654402326,
        "alt_km": 494.82342048027385,
        "timestamp": "2025-12-20T20:38:43.176192+00:00",
        "meta_object_name": "ZIYUAN 3-04 (ZY 3-04)",
        "meta_object_id": "2025-300A",
        "meta_epoch": "2025-12-20T02:54:27.968256",
        "meta_mean_motion": 15.21166252,
        "meta_eccentricity": 0.00026311,
        "meta_inclination": 97.4921,
        "meta_ra_of_asc_node": 68.1934,
        "meta_arg_of_pericenter": 174.8508,
        "meta_mean_anomaly": 185.2755,
        "meta_ephemeris_type": 0,
        "meta_classification_type": "U",
        "meta_norad_cat_id": 67131,
        "meta_element_set_no": 999,
        "meta_rev_at_epoch": 61,
        "meta_bstar": 5.9528032e-05,
        "meta_mean_motion_dot": 1.256e-05,
        "meta_mean_motion_ddot": 0,
        "tle_line1": "1 67131U 25300A   25354.12115704  .00001256  00000+0  59528-4 0  9994",
        "tle_line2": "2 67131  97.4921  68.1934 0002631 174.8508 185.2755 15.21166252   619"
      },
      "geometry": {
        "type": "Point",
        "coordinates": [
          13.969954654402326,
          80.86837431496873
        ]
      }
    }
  ]
}